{
  "type": "FeatureCollection",
  "features": [
    {
      "type": "Feature",
      "properties": {
        "norad_id": 66174,
        "name": "HTV-X1",
        "group": "stations",
        "lat": 33.10139576271921,
        "lon": -63.92494791275244,
        "alt_km": 414.2376067619807,
        "timestamp": "2025-12-11T18:59:44.831668+00:00",
        "meta_object_name": "HTV-X1",
        "meta_object_id": "2025-241A",
        "meta_epoch": "2025-12-11T04:28:53.401152",
        "meta_mean_motion": 15.49499993,
        "meta_eccentricity": 0.00033343,
        "meta_inclination": 51.6309,
        "meta_ra_of_asc_node": 150.1691,
        "meta_arg_of_pericenter": 234.1557,
        "meta_mean_anomaly": 125.9122,
        "meta_ephemeris_type": 0,
        "meta_classification_type": "U",
        "meta_norad_cat_id": 66174,
        "meta_element_set_no": 999,
        "meta_rev_at_epoch": 51,
        "meta_bstar": 0.00030173842,
        "meta_mean_motion_dot": 0.00016503,
        "meta_mean_motion_ddot": 0,
        "tle_line1": "1 66174U 25241A   25345.18672918  .00016503  00000+0  30174-3 0  9991",
        "tle_line2": "2 66174  51.6309 150.1691 0003334 234.1557 125.9122 15.49499993   513"
      },
      "geometry": {
        "type": "Point",
        "coordinates": [
          -63.92494791275244,
          33.10139576271921
        ]
      }
    },
    {
      "type": "Feature",
      "properties": {
        "norad_id": 66515,
        "name": "SZ-21 MODULE",
        "group": "stations",
        "lat": 38.8580972248963,
        "lon": 136.0375478774199,
        "alt_km": 377.90212396399966,
        "timestamp": "2025-12-11T18:59:44.831679+00:00",
        "meta_object_name": "SZ-21 MODULE",
        "meta_object_id": "2025-246C",
        "meta_epoch": "2025-12-11T04:43:33.570048",
        "meta_mean_motion": 15.623662,
        "meta_eccentricity": 0.00062999,
        "meta_inclination": 41.4772,
        "meta_ra_of_asc_node": 25.4567,
        "meta_arg_of_pericenter": 251.943,
        "meta_mean_anomaly": 108.0724,
        "meta_ephemeris_type": 0,
        "meta_classification_type": "U",
        "meta_norad_cat_id": 66515,
        "meta_element_set_no": 999,
        "meta_rev_at_epoch": 420,
        "meta_bstar": 0.00045629061,
        "meta_mean_motion_dot": 0.00041492,
        "meta_mean_motion_ddot": 0,
        "tle_line1": "1 66515U 25246C   25345.19691632  .00041492  00000+0  45629-3 0  9996",
        "tle_line2": "2 66515  41.4772  25.4567 0006299 251.9430 108.0724 15.62366200  4208"
      },
      "geometry": {
        "type": "Point",
        "coordinates": [
          136.0375478774199,
          38.8580972248963
        ]
      }
    },
    {
      "type": "Feature",
      "properties": {
        "norad_id": 66645,
        "name": "SHENZHOU-22",
        "group": "stations",
        "lat": -20.36003690837951,
        "lon": -132.68822725809676,
        "alt_km": 397.7416062804159,
        "timestamp": "2025-12-11T18:59:44.831689+00:00",
        "meta_object_name": "SHENZHOU-22",
        "meta_object_id": "2025-272A",
        "meta_epoch": "2025-12-11T05:47:37.417056",
        "meta_mean_motion": 15.59084729,
        "meta_eccentricity": 0.00086412,
        "meta_inclination": 41.4683,
        "meta_ra_of_asc_node": 25.8033,
        "meta_arg_of_pericenter": 18.034,
        "meta_mean_anomaly": 342.0803,
        "meta_ephemeris_type": 0,
        "meta_classification_type": "U",
        "meta_norad_cat_id": 66645,
        "meta_element_set_no": 999,
        "meta_rev_at_epoch": 26357,
        "meta_bstar": 0.00049057627,
        "meta_mean_motion_dot": 0.00039326,
        "meta_mean_motion_ddot": 0,
        "tle_line1": "1 66645U 25272A   25345.24140529  .00039326  00000+0  49058-3 0  9992",
        "tle_line2": "2 66645  41.4683  25.8033 0008641  18.0340 342.0803 15.59084729263574"
      },
      "geometry": {
        "type": "Point",
        "coordinates": [
          -132.68822725809676,
          -20.36003690837951
        ]
      }
    },
    {
      "type": "Feature",
      "properties": {
        "norad_id": 66664,
        "name": "SOYUZ-MS 28",
        "group": "stations",
        "lat": 33.1013943736517,
        "lon": -63.92494608311003,
        "alt_km": 414.2376069053116,
        "timestamp": "2025-12-11T18:59:44.831700+00:00",
        "meta_object_name": "SOYUZ-MS 28",
        "meta_object_id": "2025-275A",
        "meta_epoch": "2025-12-11T04:28:53.401152",
        "meta_mean_motion": 15.49499993,
        "meta_eccentricity": 0.00033343,
        "meta_inclination": 51.6309,
        "meta_ra_of_asc_node": 150.1691,
        "meta_arg_of_pericenter": 234.1557,
        "meta_mean_anomaly": 125.9122,
        "meta_ephemeris_type": 0,
        "meta_classification_type": "U",
        "meta_norad_cat_id": 66664,
        "meta_element_set_no": 999,
        "meta_rev_at_epoch": 128,
        "meta_bstar": 0.00030173842,
        "meta_mean_motion_dot": 0.00016503,
        "meta_mean_motion_ddot": 0,
        "tle_line1": "1 66664U 25275A   25345.18672918  .00016503  00000+0  30174-3 0  9992",
        "tle_line2": "2 66664  51.6309 150.1691 0003334 234.1557 125.9122 15.49499993  1282"
      },
      "geometry": {
        "type": "Point",
        "coordinates": [
          -63.92494608311003,
          33.1013943736517
        ]
      }
    },
    {
      "type": "Feature",
      "properties": {
        "norad_id": 66906,
        "name": "1998-067XS",
        "group": "stations",
        "lat": 14.046339092934792,
        "lon": -44.313806297993374,
        "alt_km": 411.9732421630615,
        "timestamp": "2025-12-11T18:59:44.831710+00:00",
        "meta_object_name": "1998-067XS",
        "meta_object_id": "1998-067XS",
        "meta_epoch": "2025-12-11T04:22:42.253536",
        "meta_mean_motion": 15.50439588,
        "meta_eccentricity": 0.00037466,
        "meta_inclination": 51.6302,
        "meta_ra_of_asc_node": 150.1407,
        "meta_arg_of_pericenter": 195.2111,
        "meta_mean_anomaly": 164.8766,
        "meta_ephemeris_type": 0,
        "meta_classification_type": "U",
        "meta_norad_cat_id": 66906,
        "meta_element_set_no": 999,
        "meta_rev_at_epoch": 137,
        "meta_bstar": 0.00067409178,
        "meta_mean_motion_dot": 0.00038814,
        "meta_mean_motion_ddot": 0,
        "tle_line1": "1 66906U 98067XS  25345.18243349  .00038814  00000+0  67409-3 0  9992",
        "tle_line2": "2 66906  51.6302 150.1407 0003746 195.2111 164.8766 15.50439588  1371"
      },
      "geometry": {
        "type": "Point",
        "coordinates": [
          -44.313806297993374,
          14.046339092934792
        ]
      }
    },
    {
      "type": "Feature",
      "properties": {
        "norad_id": 66907,
        "name": "1998-067XT",
        "group": "stations",
        "lat": 4.593166139885449,
        "lon": -36.55823950941296,
        "alt_km": 410.9502300452741,
        "timestamp": "2025-12-11T18:59:44.831721+00:00",
        "meta_object_name": "1998-067XT",
        "meta_object_id": "1998-067XT",
        "meta_epoch": "2025-12-09T12:07:37.114752",
        "meta_mean_motion": 15.50864429,
        "meta_eccentricity": 0.00048036,
        "meta_inclination": 51.6307,
        "meta_ra_of_asc_node": 158.4423,
        "meta_arg_of_pericenter": 208.5081,
        "meta_mean_anomaly": 151.5646,
        "meta_ephemeris_type": 0,
        "meta_classification_type": "U",
        "meta_norad_cat_id": 66907,
        "meta_element_set_no": 999,
        "meta_rev_at_epoch": 111,
        "meta_bstar": 0.0012921241,
        "meta_mean_motion_dot": 0.00076342,
        "meta_mean_motion_ddot": 0,
        "tle_line1": "1 66907U 98067XT  25343.50529068  .00076342  00000+0  12921-2 0  9998",
        "tle_line2": "2 66907  51.6307 158.4423 0004803 208.5081 151.5646 15.50864429  1113"
      },
      "geometry": {
        "type": "Point",
        "coordinates": [
          -36.55823950941296,
          4.593166139885449
        ]
      }
    },
    {
      "type": "Feature",
      "properties": {
        "norad_id": 66908,
        "name": "1998-067XU",
        "group": "stations",
        "lat": 3.2437357593550313,
        "lon": -35.48416447088911,
        "alt_km": 410.7887165580469,
        "timestamp": "2025-12-11T18:59:44.831732+00:00",
        "meta_object_name": "1998-067XU",
        "meta_object_id": "1998-067XU",
        "meta_epoch": "2025-12-10T15:57:23.331168",
        "meta_mean_motion": 15.51115637,
        "meta_eccentricity": 0.00048129,
        "meta_inclination": 51.6304,
        "meta_ra_of_asc_node": 152.6848,
        "meta_arg_of_pericenter": 213.5482,
        "meta_mean_anomaly": 146.5203,
        "meta_ephemeris_type": 0,
        "meta_classification_type": "U",
        "meta_norad_cat_id": 66908,
        "meta_element_set_no": 999,
        "meta_rev_at_epoch": 129,
        "meta_bstar": 0.0014713865,
        "meta_mean_motion_dot": 0.00087912,
        "meta_mean_motion_ddot": 0,
        "tle_line1": "1 66908U 98067XU  25344.66485337  .00087912  00000+0  14714-2 0  9994",
        "tle_line2": "2 66908  51.6304 152.6848 0004812 213.5482 146.5203 15.51115637  1292"
      },
      "geometry": {
        "type": "Point",
        "coordinates": [
          -35.48416447088911,
          3.2437357593550313
        ]
      }
    }
  ]
}